IRIDIUM 126             
1 42809U 17039G   25212.91115086  .00000000  00000+0 -71287-5 0  9996
2 42809  86.4000 127.5505 0002029  79.1430 280.9995 14.34213101424041
IRIDIUM 124             
1 42810U 17039H   25212.95190740  .00000229  00000+0  61959-4 0  9998
2 42810  86.4448  64.2426 0002112  92.0877 268.0566 14.43281406428925
IRIDIUM 128             
1 42811U 17039J   25212.90188324  .00000246  00000+0  80893-4 0  9996
2 42811  86.4022 159.0322 0002130  93.5968 266.5472 14.34218406424070
IRIDIUM 121             
1 42812U 17039K   25212.86040687  .00000271  00000+0  89535-4 0  9991
2 42812  86.3997 127.5974 0002219  87.8629 272.2821 14.34216762423919
IRIDIUM 133             
1 42955U 17061A   25212.86382742  .00000149  00000+0  46017-4 0  9997
2 42955  86.4025 159.1576 0002201  84.9261 275.2186 14.34217679408862
IRIDIUM 100             
1 42956U 17061B   25212.92725353  .00000027  00000+0  27011-5 0  9993
2 42956  86.4023 159.0575 0002022  84.7961 275.3466 14.34217704408877
IRIDIUM 122             
1 42957U 17061C   25212.89554062  .00000064  00000+0  15700-4 0  9999
2 42957  86.4025 159.0700 0002231  84.7465 275.3985 14.34218008408875
IRIDIUM 129             
1 42958U 17061D   25212.92091414  .00000282  00000+0  93550-4 0  9992
2 42958  86.4023 159.1227 0002645  77.6628 282.4863 14.34219616408892
